NOAA 1 [-]              
1 04793U 70106A   20121.15544410 -.00000042  00000-0  12771-4 0  9996
2 04793 101.6586 190.0779 0031737  34.5145  19.5444 12.53994016260519
NOAA 2 (ITOS-D) [-]     
1 06235U 72082A   20121.88069685 -.00000014  00000-0  19699-3 0  9994
2 06235 101.8469  91.7617 0004386 120.9719 293.5630 12.53123319174794
NOAA 3 [-]              
1 06920U 73086A   20121.85740463 -.00000051  00000-0 -45122-4 0  9990
2 06920 102.1022  93.4729 0006085 288.5657 123.9689 12.40341513104569
NOAA 4 [-]              
1 07529U 74089A   20121.41059164 -.00000043  00000-0  15057-4 0  9997
2 07529 101.8053  91.3740 0009099 153.9201 358.3477 12.53140876 79331
NOAA 5 [-]              
1 09057U 76077A   20120.89286605 -.00000026  00000-0  13965-3 0  9993
2 09057 101.9823  89.9912 0010130 137.0455 277.7278 12.37751804977400
TIROS N [P]             
1 11060U 78096A   20121.15403147 -.00000001  00000-0  20755-4 0  9994
2 11060  98.7433 179.7575 0010012 215.3176 144.7337 14.18265419361521
NOAA 6 [P]              
1 11416U 79057A   20121.84680473  .00000047  00000-0  32935-4 0  9994
2 11416  98.6563 120.6955 0011067  37.8642 322.3318 14.33575663130318
NOAA 7 [-]              
1 12553U 81059A   20120.97905478 -.00000035  00000-0  58882-5 0  9998
2 12553  99.0862 140.5197 0011835 161.4369 198.7239 14.17274425  7527
NOAA 8 [-]              
1 13923U 83022A   20121.02533644  .00000012  00000-0  22290-4 0  9998
2 13923  98.6167 106.8326 0014635 332.4843  27.5562 14.28700478931257
NOAA 9 [P]              
1 15427U 84123A   20121.11673249  .00000026  00000-0  36066-4 0  9999
2 15427  98.9372  75.2434 0014201 211.6751 158.9395 14.16095994826683
NOAA 10 [-]             
1 16969U 86073A   20121.00151618  .00000004  00000-0  18900-4 0  9999
2 16969  98.5013 113.7961 0013389  77.9915 345.8567 14.28095935749980
NOAA 11 [-]             
1 19531U 88089A   20121.31505322 -.00000008  00000-0  16756-4 0  9997
2 19531  98.4169 143.4289 0010001 261.4490  98.5551 14.15254389631002
NOAA 12 [-]             
1 21263U 91032A   20121.31813674 -.00000007  00000-0  14824-4 0  9999
2 21263  98.5079 132.6722 0014857  96.0107 264.2767 14.25912787506095
NOAA 13 [-]             
1 22739U 93050A   20121.25465555  .00000009  00000-0  26605-4 0  9995
2 22739  98.4583 131.7533 0010515  57.9316 302.2877 14.12753055377412
NOAA 14 [-]             
1 23455U 94089A   20121.83743277 -.00000023  00000-0  99747-5 0  9993
2 23455  98.5484 175.3872 0010162  42.6078 317.5883 14.14143430307043
NOAA 15 [B]             
1 25338U 98030A   20121.15888698  .00000050  00000-0  39359-4 0  9998
2 25338  98.7214 146.4452 0011191  48.3965 311.8172 14.25961394142350
NOAA 16 [-]             
1 26536U 00055A   20121.83369540 -.00000005  00000-0  20379-4 0  9997
2 26536  98.7356 192.0482 0009889 217.1606 142.8883 14.13250599 11011
NOAA 17 [-]             
1 27453U 02032A   20121.13874531 -.00000004  00000-0  16456-4 0  9997
2 27453  98.5802  68.7231 0012198  23.6063 336.5674 14.25064253928020
NOAA 18 [B]             
1 28654U 05018A   20121.20770856  .00000074  00000-0  64867-4 0  9996
2 28654  99.0483 177.1747 0014236  11.7705 348.3796 14.12506541770105
NOAA 19 [+]             
1 33591U 09005A   20121.20816990  .00000045  00000-0  49952-4 0  9998
2 33591  99.1968 125.2993 0013492 207.4237 152.6223 14.12405211578327
SUOMI NPP [+]           
1 37849U 11061A   20121.20463831  .00000001  00000-0  21395-4 0  9998
2 37849  98.7337  59.7817 0001401  73.7667  57.6088 14.19550105440787
NOAA 20 [+]             
1 43013U 17073A   20121.00327961  .00000013  00000-0  26733-4 0  9992
2 43013  98.7149  59.7088 0001491  95.2442 264.8904 14.19552552126785
